IRIDIUM 116             
1 43072U 17083C   24358.57873935  .00000075  00000+0  19700-4 0  9996
2 43072  86.3984 187.9408 0001937  95.4441 264.6976 14.34217933366686
IRIDIUM 130             
1 43073U 17083D   24358.47725777  .00000132  00000+0  39897-4 0  9999
2 43073  86.3993 188.2056 0001789  90.0050 270.1351 14.34218384366615
IRIDIUM 151             
1 43074U 17083E   24358.52165795  .00000040  00000+0  71075-5 0  9997
2 43074  86.3986 188.0101 0002135  92.9711 267.1729 14.34219343366642
IRIDIUM 134             
1 43075U 17083F   24358.07132905  .00000076  00000+0  19995-4 0  9996
2 43075  86.3988 188.1989 0001871  91.1085 269.0325 14.34217408366543
IRIDIUM 137             
1 43076U 17083G   24358.50262782  .00000178  00000+0  56634-4 0  9996
2 43076  86.3990 188.1004 0002244 103.0454 257.0992 14.34218300366676
IRIDIUM 141             
1 43077U 17083H   24358.49628524  .00000122  00000+0  36579-4 0  9990
2 43077  86.3986 187.9647 0001992  80.0586 280.0834 14.34217981366676
IRIDIUM 153             
1 43078U 17083J   24358.51823006  .00000154  00000+0  47931-4 0  9995
2 43078  86.3990 156.4817 0002174  75.9807 284.1630 14.34217429367783
IRIDIUM 131             
1 43079U 17083K   24358.76266909  .00000022  00000+0  86037-6 0  9992
2 43079  86.3992 188.0032 0002155  85.6802 274.4640 14.34217077366644
